     2.100          NAVIGATION                              RINEX VERSION / TYPE
fic2rin                                 10/03/2011 00:03:56 PGM / RUN BY / DATE
                                                            END OF HEADER
15 11 10  2  4  0  0.0 -.104093924165D-03  .136424205266D-11  .000000000000D+00
     .840000000000D+02  .704687500000D+02  .509342644737D-08  .170304608732D+01
     .390782952309D-05  .371804193128D-02  .336579978466D-05  .515369294167D+04
     .144000000000D+05  .102445483208D-06 -.117360565357D+01  .931322574615D-07
     .948129665383D+00  .306156250000D+03 -.787126130048D-01 -.856142804641D-08
    -.367872466222D-10  .100000000000D+01  .165600000000D+04  .000000000000D+00
     .240000000000D+01  .000000000000D+00 -.102445483208D-07  .840000000000D+02
     .720600000000D+04  .400000000000D+01
16 11 10  2  4  0  0.0 -.201006419957D-03 -.216004991671D-11  .000000000000D+00
     .290000000000D+02 -.721250000000D+02  .386766110361D-08 -.306896506735D+01
    -.371411442757D-05  .612568203360D-02  .103861093521D-04  .515353308487D+04
     .144000000000D+05 -.502914190292D-07  .977352160606D+00  .484287738800D-07
     .977606142203D+00  .188937500000D+03 -.701427672135D-01 -.765246161289D-08
     .233224000430D-09  .100000000000D+01  .165600000000D+04  .000000000000D+00
     .240000000000D+01  .000000000000D+00 -.977888703346D-08  .290000000000D+02
     .720600000000D+04  .400000000000D+01
17 11 10  2  4  0  0.0  .172646716237D-03 -.159161572810D-11  .000000000000D+00
     .150000000000D+02 -.631250000000D+01  .457519057505D-08  .234386247846D+01
    -.225380063057D-06  .662747595925D-02  .701844692230D-05  .515357949257D+04
     .144000000000D+05 -.100582838058D-06  .201965992617D+01 -.188127160072D-06
     .961546597647D+00  .242531250000D+03 -.240564884987D+01 -.798997567170D-08
     .404302555110D-09  .100000000000D+01  .165600000000D+04  .000000000000D+00
     .240000000000D+01  .000000000000D+00 -.107102096081D-07  .150000000000D+02
     .720600000000D+04  .400000000000D+01
18 11 10  2  4  0  0.0  .160104595125D-03  .181898940355D-11  .000000000000D+00
     .690000000000D+02  .880937500000D+02  .509306928964D-08 -.248625363184D+01
     .440888106823D-05  .127692384413D-01  .924244523048D-05  .515363862610D+04
     .144000000000D+05  .257045030594D-06 -.218777067156D+01 -.122934579849D-06
     .931800541598D+00  .184593750000D+03 -.221096362996D+01 -.809426573009D-08
     .135719938995D-10  .100000000000D+01  .165600000000D+04  .000000000000D+00
     .240000000000D+01  .000000000000D+00 -.107102096081D-07  .690000000000D+02
     .720600000000D+04  .400000000000D+01
19 11 10  2  4  0  0.0 -.189860351384D-03 -.397903932026D-11  .000000000000D+00
     .200000000000D+02 -.884375000000D+01  .474912639161D-08  .161191554540D+01
    -.402331352234D-06  .761242210865D-02  .697560608387D-05  .515369891930D+04
     .144000000000D+05  .931322574615D-08  .207335942687D+01  .912696123123D-07
     .959041090037D+00  .243906250000D+03  .111082741785D+00 -.809069415274D-08
     .226795161215D-09  .100000000000D+01  .165600000000D+04  .000000000000D+00
     .240000000000D+01  .000000000000D+00 -.144354999065D-07  .200000000000D+02
     .720600000000D+04  .400000000000D+01
20 11 10  2  4  0  0.0  .537531450391D-04  .568434188608D-12  .000000000000D+00
     .290000000000D+02  .765000000000D+02  .513664253321D-08 -.205050271727D+01
     .396557152271D-05  .457667256705D-02  .103171914816D-04  .515358749580D+04
     .144000000000D+05  .502914190292D-07 -.224164277904D+01 -.111758708954D-07
     .932108379061D+00  .164937500000D+03  .126110871602D+01 -.817998358629D-08
    -.115719105880D-09  .100000000000D+01  .165600000000D+04  .000000000000D+00
     .240000000000D+01  .000000000000D+00 -.745058059692D-08  .290000000000D+02
     .720600000000D+04  .400000000000D+01
21 11 10  2  4  0  0.0 -.175194814801D-03 -.250111042988D-11  .000000000000D+00
     .630000000000D+02 -.678125000000D+01  .529164898985D-08 -.138237669285D+01
    -.301748514175D-06  .181318616960D-01  .769831240177D-05  .515370362473D+04
     .144000000000D+05  .420957803726D-06  .304269207977D+01  .279396772385D-07
     .931978963476D+00  .207593750000D+03 -.232751004307D+01 -.821712799065D-08
    -.167149819604D-09  .100000000000D+01  .165600000000D+04  .000000000000D+00
     .240000000000D+01  .000000000000D+00 -.116415321827D-07  .630000000000D+02
     .720600000000D+04  .400000000000D+01
22 11 10  2  4  0  0.0  .144153833389D-03 -.113686837722D-12  .000000000000D+00
     .300000000000D+02  .946875000000D+02  .509342644737D-08  .294447965968D+01
     .476650893688D-05  .591247575358D-02  .997260212898D-05  .515370968246D+04
     .144000000000D+05  .502914190292D-07 -.218389702248D+01 -.139698386192D-06
     .929503031681D+00  .171500000000D+03 -.196847883308D+01 -.815426822943D-08
    -.130005415247D-09  .100000000000D+01  .165600000000D+04  .000000000000D+00
     .240000000000D+01  .000000000000D+00 -.167638063431D-07  .300000000000D+02
     .720600000000D+04  .400000000000D+01
25 11 10  2  4  0  0.0  .213901512325D-04  .181898940355D-11  .000000000000D+00
     .890000000000D+02 -.582812500000D+02  .408802742561D-08 -.221716254051D+01
    -.293180346489D-05  .101332576014D-02  .101830810308D-04  .515359312820D+04
     .144000000000D+05 -.633299350739D-07  .928052824897D+00 -.912696123123D-07
     .965505758676D+00  .187437500000D+03  .990352247529D+00 -.777532387345D-08
     .180364655769D-09  .100000000000D+01  .165600000000D+04  .000000000000D+00
     .240000000000D+01  .000000000000D+00  .558793544769D-08  .890000000000D+02
     .720600000000D+04  .400000000000D+01
26 11 10  2  4  0  0.0 -.176367815584D-03 -.129602995003D-10  .000000000000D+00
     .610000000000D+02  .517812500000D+02  .430982237854D-08  .950954405125D+00
     .280141830444D-05  .203949123388D-01  .429153442383D-05  .515365853882D+04
     .144000000000D+05 -.298023223877D-06 -.107371845122D+01  .149011611938D-06
     .985758746203D+00  .314218750000D+03  .116158403501D+01 -.846070956537D-08
    -.111790370803D-09  .100000000000D+01  .165600000000D+04  .000000000000D+00
     .240000000000D+01  .000000000000D+00 -.605359673500D-08  .610000000000D+02
     .720600000000D+04  .400000000000D+01
27 11 10  2  4  0  0.0  .310959760100D-03  .386535248253D-11  .000000000000D+00
     .690000000000D+02 -.724062500000D+02  .402766776853D-08  .190790526172D+01
    -.392086803913D-05  .216431898298D-01  .377558171749D-05  .515362472534D+04
     .144000000000D+05  .324100255966D-06 -.149263464142D+00 -.521540641785D-07
     .981810007002D+00  .307781250000D+03 -.119897273499D+01 -.776532345689D-08
    -.461090634847D-09  .100000000000D+01  .165600000000D+04  .000000000000D+00
     .240000000000D+01  .630000000000D+02 -.419095158577D-08  .690000000000D+02
     .720600000000D+04  .400000000000D+01
28 11 10  2  4  0  0.0  .721220858395D-04  .318323145621D-11  .000000000000D+00
     .680000000000D+02 -.660000000000D+02  .378587198248D-08  .300200723079D+01
    -.339746475220D-05  .172487153905D-01  .956095755100D-05  .515370713615D+04
     .144000000000D+05  .145286321640D-06  .984390945594D+00 -.100582838058D-06
     .975917816243D+00  .200406250000D+03 -.187998098194D+01 -.734709175015D-08
     .251081887140D-09  .100000000000D+01  .165600000000D+04  .000000000000D+00
     .240000000000D+01  .000000000000D+00 -.102445483208D-07  .680000000000D+02
     .720600000000D+04  .400000000000D+01
29 11 10  2  4  0  0.0  .244753435254D-03  .329691829393D-11  .000000000000D+00
     .560000000000D+02 -.496875000000D+01  .466626579727D-08 -.118026523264D+01
    -.208616256714D-06  .217174179852D-02  .687874853611D-05  .515371052933D+04
     .144000000000D+05 -.279396772385D-07  .202810926993D+01  .707805156708D-07
     .962025862776D+00  .248437500000D+03 -.116824955792D+01 -.810712340852D-08
     .384301721995D-09  .100000000000D+01  .165600000000D+04  .000000000000D+00
     .240000000000D+01  .000000000000D+00 -.931322574615D-08  .560000000000D+02
     .720600000000D+04  .400000000000D+01
30 11 10  2  4  0  0.0  .765020959079D-04 -.738964445191D-11  .000000000000D+00
     .750000000000D+02 -.733750000000D+02  .415767318378D-08  .296817159311D+01
    -.365264713764D-05  .117130279541D-01  .103358179331D-04  .515544326782D+04
     .144000000000D+05  .931322574615D-07  .839268433459D+00  .149011611938D-07
     .956842714763D+00  .174406250000D+03  .158062229403D+01 -.768067707389D-08
     .143577409147D-09  .100000000000D+01  .165600000000D+04  .000000000000D+00
     .240000000000D+01  .000000000000D+00 -.419095158577D-08  .750000000000D+02
     .720600000000D+04  .400000000000D+01
31 11 10  2  4  0  0.0  .149512663484D-03  .534328137292D-11  .000000000000D+00
     .108000000000D+03 -.782187500000D+02  .416231623432D-08 -.482972488211D+00
    -.401958823204D-05  .768040760886D-02  .501796603203D-05  .515374733162D+04
     .144000000000D+05 -.119209289551D-06 -.937073038796D-01 -.353902578354D-07
     .980554164977D+00  .295125000000D+03 -.953118199942D+00 -.822105672573D-08
    -.265011038773D-09  .100000000000D+01  .165600000000D+04  .000000000000D+00
     .240000000000D+01  .000000000000D+00 -.130385160446D-07  .108000000000D+03
     .720600000000D+04  .400000000000D+01
32 11 10  2  4  0  0.0 -.338470563293D-03 -.636646291241D-11  .000000000000D+00
     .700000000000D+02  .876562500000D+02  .479448542385D-08  .253481685204D+00
     .451505184174D-05  .122067508055D-01  .101011246443D-04  .515356200981D+04
     .144000000000D+05  .130385160446D-07 -.211415921732D+01 -.176951289177D-06
     .953672202629D+00  .184437500000D+03 -.723157920190D+00 -.827570185906D-08
    -.589310261424D-10  .100000000000D+01  .165600000000D+04  .000000000000D+00
     .240000000000D+01  .000000000000D+00 -.279396772385D-08  .700000000000D+02
     .720600000000D+04  .400000000000D+01
